NORAD_CAT_ID,OBJECT_NAME,OBJECT_TYPE,EPOCH,MEAN_MOTION,ECCENTRICITY,INCLINATION,RA_OF_ASC_NODE,ARG_OF_PERICENTER,MEAN_ANOMALY,BSTAR,MEAN_MOTION_DOT,MEAN_MOTION_DDOT,TLE_LINE0,TLE_LINE1,TLE_LINE2,SEMIMAJOR_AXIS,PERIOD,APOGEE,PERIGEE,DECAYED
52364.0,STARLINK-3820,PAYLOAD,2022-07-03 00:00:00,15.73246806,0.000287,53.216,118.9581,15.156,31.9352,5.7395e-05,7.457e-05,0.0,0 STARLINK-3820,1 52364U 22045AK  22184.00001157  .00007457  00000-0  57395-4 0  9990,2 52364  53.2160 118.9581 0002870  15.1560  31.9352 15.73246806 12645,6727.762,91.53,351.55800000000005,347.696,0.0
52364.0,STARLINK-3820,PAYLOAD,2022-07-03 14:00:01,15.73253018,0.0002839,53.216,116.0703,15.352,97.5059,-0.00090577,-0.00126172,0.0,0 STARLINK-3820,1 52364U 22045AK  22184.58334491 -.00126172  00000-0 -90577-3 0  9999,2 52364  53.2160 116.0703 0002839  15.3520  97.5059 15.73253018 12738,6727.744000000002,91.53,351.519,347.699,0.0
52364.0,STARLINK-3820,PAYLOAD,2022-07-03 22:00:00,15.73170394,0.0002901999999999,53.2162,114.421,21.5154,180.2735,-0.00067362,-0.00094017,0.0,0 STARLINK-3820,1 52364U 22045AK  22184.91667824 -.00094017  00000-0 -67362-3 0  9993,2 52364  53.2162 114.4210 0002902  21.5154 180.2735 15.73170394  1305,6727.98,91.535,351.797,347.892,0.0
52364.0,STARLINK-3820,PAYLOAD,2022-07-04 06:00:00,15.73049614,0.0003135,53.2161,112.7734,18.2065,272.4309,0.00053389,0.00074504,0.0,0 STARLINK-3820,1 52364U 22045AK  22185.25001157  .00074504  00000-0  53389-3 0  9993,2 52364  53.2161 112.7734 0003135  18.2065 272.4309 15.73049614 12830,6728.324000000001,91.542,352.298,348.08,0.0
52364.0,STARLINK-3820,PAYLOAD,2022-07-04 14:00:01,15.7306942,0.0002835,53.2159,111.1221,17.5467,1.8754,0.0010555,0.00149351,0.0,0 STARLINK-3820,1 52364U 22045AK  22185.58334491  .00149351  00000-0  10555-2 0  9999,2 52364  53.2159 111.1221 0002835  17.5467   1.8754 15.73069420  1300,6728.267,91.541,352.04,348.225,0.0
52364.0,STARLINK-3820,PAYLOAD,2022-07-04 22:00:00,15.73204284,0.0002829,53.2158,109.4734,16.5971,91.6654,3.2644e-05,3.963e-05,0.0,0 STARLINK-3820,1 52364U 22045AK  22185.91667824  .00003963  00000-0  32644-4 0  9998,2 52364  53.2158 109.4734 0002829  16.5971  91.6654 15.73204284 12947,6727.8830000000025,91.533,351.651,347.845,0.0
52364.0,STARLINK-3820,PAYLOAD,2022-07-05 08:00:01,15.73234405,0.0002984,53.2152,107.4124,14.1546,295.3002,0.00027758,0.00038578,0.0,0 STARLINK-3820,1 52364U 22045AK  22186.33334491  .00038578  00000-0  27758-3 0  9995,2 52364  53.2152 107.4124 0002984  14.1546 295.3002 15.73234405 13002,6727.797,91.531,351.67,347.655,0.0
52364.0,STARLINK-3820,PAYLOAD,2022-07-05 14:00:01,15.73264884,0.000272,53.2156,106.1735,14.2268,271.966,-0.00021718,-0.00031081,0.0,0 STARLINK-3820,1 52364U 22045AK  22186.58334491 -.00031081  00000-0 -21718-3 0  9996,2 52364  53.2156 106.1735 0002720  14.2268 271.9660 15.73264884  1304,6727.71,91.529,351.405,347.745,0.0
52364.0,STARLINK-3820,PAYLOAD,2022-07-05 22:00:00,15.73266638,0.0002778,53.2162,104.5227,13.4137,1.7706,-0.00045073,-0.00063597,0.0,0 STARLINK-3820,1 52364U 22045AK  22186.91667824 -.00063597  00000-0 -45073-3 0  9999,2 52364  53.2162 104.5227 0002778  13.4137   1.7706 15.73266638 13096,6727.705,91.529,351.439,347.701,0.0
52364.0,STARLINK-3820,PAYLOAD,2022-07-06 06:00:00,15.73274181,0.0002968,53.2165,102.8715,12.1316,92.0121,-0.0038194,-0.00507413,0.0,0 STARLINK-3820,1 52364U 22045AK  22187.25001157 -.00507413  00000-0 -38194-2 0  9993,2 52364  53.2165 102.8715 0002968  12.1316  92.0121 15.73274181 13151,6727.684,91.529,351.545,347.552,0.0
52364.0,STARLINK-3820,PAYLOAD,2022-07-06 14:00:01,15.73048307,0.0002803,53.2174,101.2163,12.9936,179.9379,-0.0083933,-0.01053902,0.0,0 STARLINK-3820,1 52364U 22045AK  22187.58334491 -.01053902  00000-0 -83933-2 0  9990,2 52364  53.2174 101.2163 0002803  12.9936 179.9379 15.73048307 13200,6728.328,91.542,352.079,348.307,0.0
52364.0,STARLINK-3820,PAYLOAD,2022-07-06 22:00:00,15.72288789,0.0002683,53.2175,99.5665,12.5649,268.6482,-0.0086857,-0.01055335,0.0,0 STARLINK-3820,1 52364U 22045AK  22187.91667824 -.01055335  00000-0 -86857-2 0  9996,2 52364  53.2175  99.5665 0002683  12.5649 268.6482 15.72288789  1308,6730.494000000002,91.586,354.165,350.55400000000014,0.0
52364.0,STARLINK-3820,PAYLOAD,2022-07-07 06:00:02,15.71528027,0.0002483,53.217,97.919,11.4626,357.1839,-0.0089422999999999,-0.01052031,0.0,0 STARLINK-3820,1 52364U 22045AK  22188.25002315 -.01052031  00000-0 -89423-2 0  9994,2 52364  53.2170  97.9190 0002483  11.4626 357.1839 15.71528027 13303,6732.666,91.631,356.20300000000015,352.86,0.0
52364.0,STARLINK-3820,PAYLOAD,2022-07-07 14:00:01,15.7077112,0.0002785,53.2172,96.2702,356.6052,98.4322,-0.0092817,-0.01057042,0.0,0 STARLINK-3820,1 52364U 22045AK  22188.58334491 -.01057042  00000-0 -92817-2 0  9991,2 52364  53.2172  96.2702 0002785 356.6052  98.4322 15.70771120  1300,6734.829000000002,91.675,358.57,354.8180000000001,0.0
52364.0,STARLINK-3820,PAYLOAD,2022-07-07 22:00:00,15.70007484,0.0003054,53.2174,94.6263,11.9219,168.6593,-0.0095106,-0.01049752,0.0,0 STARLINK-3820,1 52364U 22045AK  22188.91667824 -.01049752  00000-0 -95106-2 0  9990,2 52364  53.2174  94.6263 0003054  11.9219 168.6593 15.70007484 13412,6737.013000000001,91.719,360.935,356.82,0.0
52364.0,STARLINK-3820,PAYLOAD,2022-07-08 04:52:45,15.70610696,0.0002517,53.2163,93.2345,289.465,70.6097,-0.0032625,-0.00392331,0.0,0 STARLINK-3820,1 52364U 22045AK  22189.20330370 -.00392331  00000-0 -32625-2 0  9996,2 52364  53.2163  93.2345 0002517 289.4650  70.6097 15.70610696 13461,6735.288000000001,91.684,358.848,355.457,0.0
52364.0,STARLINK-3820,PAYLOAD,2022-07-08 14:00:01,15.68487563,0.0001103,53.2174,91.3409,40.3262,308.6045,-0.010123,-0.01048024,0.0,0 STARLINK-3820,1 52364U 22045AK  22189.58334491 -.01048024  00000-0 -10123-1 0  9991,2 52364  53.2174  91.3409 0001103  40.3262 308.6045 15.68487563  1305,6741.364000000001,91.808,363.973,362.486,0.0
52364.0,STARLINK-3820,PAYLOAD,2022-07-08 22:00:01,15.67730279,0.0001422,53.2175,89.7029,42.1397,29.6595,-0.010475,-0.01050888,0.0,0 STARLINK-3820,1 52364U 22045AK  22189.91668981 -.01050888  00000-0 -10475-1 0  9993,2 52364  53.2175  89.7029 0001422  42.1397  29.6595 15.67730279 13574,6743.535,91.853,366.359,364.441,0.0
52364.0,STARLINK-3820,PAYLOAD,2022-07-09 14:00:01,15.66210275,0.0001233,53.2171,86.4284,64.8609,169.7463,-0.011118,-0.01048398,0.0,0 STARLINK-3820,1 52364U 22045AK  22190.58334491 -.01048398  00000-0 -11118-1 0  9992,2 52364  53.2171  86.4284 0001233  64.8609 169.7463 15.66210275  1300,6747.897,91.942,370.594,368.93,0.0
52364.0,STARLINK-3820,PAYLOAD,2022-07-09 20:00:01,15.65640618,0.0001363,53.2175,85.2038,59.2905,145.452,-0.011373,-0.01048063,0.0,0 STARLINK-3820,1 52364U 22045AK  22190.83334491 -.01048063  00000-0 -11373-1 0  9992,2 52364  53.2175  85.2038 0001363  59.2905 145.4520 15.65640618  1301,6749.534000000002,91.975,372.319,370.479,0.0
52364.0,STARLINK-3820,PAYLOAD,2022-07-10 14:00:01,15.63932379,0.0001239,53.2172,81.5326,58.6928,53.3777,-0.012198,-0.01049421,0.0,0 STARLINK-3820,1 52364U 22045AK  22191.58334491 -.01049421  00000-0 -12198-1 0  9990,2 52364  53.2172  81.5326 0001239  58.6928  53.3777 15.63932379 13835,6754.448,92.076,377.15,375.476,0.0
52364.0,STARLINK-3820,PAYLOAD,2022-07-10 22:00:00,15.63170682,0.0001377,53.2175,79.9059,61.2989,128.1003,-0.012512,-0.01044925,0.0,0 STARLINK-3820,1 52364U 22045AK  22191.91667824 -.01044925  00000-0 -12512-1 0  9990,2 52364  53.2175  79.9059 0001377  61.2989 128.1003 15.63170682  1305,6756.642,92.12,379.437,377.577,0.0
52364.0,STARLINK-3820,PAYLOAD,2022-07-11 14:00:01,15.61652035,0.000113,53.2172,76.6533,57.8348,283.4856,-0.013294,-0.01061957,0.0,0 STARLINK-3820,1 52364U 22045AK  22192.58334491 -.01061957  00000-0 -13294-1 0  9997,2 52364  53.2172  76.6533 0001130  57.8348 283.4856 15.61652035 13983,6761.022,92.21,383.651,382.12300000000016,0.0
52364.0,STARLINK-3820,PAYLOAD,2022-07-11 22:00:00,15.60895097,0.0001395999999999,53.2174,75.0324,44.6244,11.2847,-0.013734,-0.01065047,0.0,0 STARLINK-3820,1 52364U 22045AK  22192.91667824 -.01065047  00000-0 -13734-1 0  9996,2 52364  53.2174  75.0324 0001396  44.6244  11.2847 15.60895097  1305,6763.206999999999,92.255,386.016,384.128,0.0
52364.0,STARLINK-3820,PAYLOAD,2022-07-12 06:00:00,15.60135457,0.0001233,53.2171,73.4114,67.5339,62.0539,-0.014135,-0.01064415,0.0,0 STARLINK-3820,1 52364U 22045AK  22193.25001157 -.01064415  00000-0 -14135-1 0  9999,2 52364  53.2171  73.4114 0001233  67.5339  62.0539 15.60135457 14099,6765.401999999999,92.3,388.102,386.4330000000001,0.0
52364.0,STARLINK-3820,PAYLOAD,2022-07-12 14:00:01,15.59375337,0.0001311,53.2172,71.7906,65.2486,137.1063,-0.014547,-0.01063965,0.0,0 STARLINK-3820,1 52364U 22045AK  22193.58334491 -.01063965  00000-0 -14547-1 0  9991,2 52364  53.2172  71.7906 0001311  65.2486 137.1063 15.59375337  1302,6767.601,92.345,390.353,388.579,0.0
52364.0,STARLINK-3820,PAYLOAD,2022-07-12 22:00:00,15.58614638,0.0001383,53.2172,70.1754,53.4036,220.8034,-0.014935,-0.01061333,0.0,0 STARLINK-3820,1 52364U 22045AK  22193.91667824 -.01061333  00000-0 -14935-1 0  9995,2 52364  53.2172  70.1754 0001383  53.4036 220.8034 15.58614638  1302,6769.803000000001,92.39,392.604,390.731,0.0
52364.0,STARLINK-3820,PAYLOAD,2022-07-13 06:00:00,15.57857484,0.0001023,53.2173,68.5597,74.2328,270.914,-0.015422,-0.01064458,0.0,0 STARLINK-3820,1 52364U 22045AK  22194.25001157 -.01064458  00000-0 -15422-1 0  9997,2 52364  53.2173  68.5597 0001023  74.2328 270.9140 15.57857484 14254,6771.996,92.435,394.554,393.168,0.0
52364.0,STARLINK-3820,PAYLOAD,2022-07-13 14:00:01,15.57095437,0.0001197,53.2174,66.9445,57.8947,357.2819,-0.015818,-0.01061204,0.0,0 STARLINK-3820,1 52364U 22045AK  22194.58334491 -.01061204  00000-0 -15818-1 0  9998,2 52364  53.2174  66.9445 0001197  57.8947 357.2819 15.57095437  1301,6774.205,92.48,396.881,395.259,0.0
